$$SOE
2461288.500000000, A.D. 2026-Sep-05 00:00:00.0000, -2.691888238977746E+08, -3.119930861176176E+08, 1.199699883699762E+08,
2461295.500000000, A.D. 2026-Sep-12 00:00:00.0000, -2.607512700582893E+08, -3.137859057675032E+08, 1.212975600929171E+08,
2461302.500000000, A.D. 2026-Sep-19 00:00:00.0000, -2.521495524281974E+08, -3.153811640167094E+08, 1.225487538070382E+08,
2461309.500000000, A.D. 2026-Sep-26 00:00:00.0000, -2.433849218218321E+08, -3.167726444879360E+08, 1.237207557629184E+08,
2461316.500000000, A.D. 2026-Oct-03 00:00:00.0000, -2.344587423486329E+08, -3.179538506382251E+08, 1.248106215721373E+08,
2461323.500000000, A.D. 2026-Oct-10 00:00:00.0000, -2.253725077433845E+08, -3.189179868814907E+08, 1.258152669379032E+08,
2461330.500000000, A.D. 2026-Oct-17 00:00:00.0000, -2.161278597653067E+08, -3.196579384116668E+08, 1.267314576481623E+08,
2461337.500000000, A.D. 2026-Oct-24 00:00:00.0000, -2.067266089335562E+08, -3.201662496431413E+08, 1.275557987622084E+08,
2461344.500000000, A.D. 2026-Oct-31 00:00:00.0000, -1.971707578382842E+08, -3.204351012237846E+08, 1.282847229061593E+08,
2461351.500000000, A.D. 2026-Nov-07 00:00:00.0000, -1.874625270798545E+08, -3.204562854309521E+08, 1.289144775768230E+08,
2461358.500000000, A.D. 2026-Nov-14 00:00:00.0000, -1.776043840902071E+08, -3.202211789448904E+08, 1.294411114274018E+08,
2461365.500000000, A.D. 2026-Nov-21 00:00:00.0000, -1.675990771769142E+08, -3.197207121989259E+08, 1.298604596710055E+08,
2461372.500000000, A.D. 2026-Nov-28 00:00:00.0000, -1.574496764034523E+08, -3.189453381996940E+08, 1.301681283573786E+08,
2461379.500000000, A.D. 2026-Dec-05 00:00:00.0000, -1.471596184053627E+08, -3.178850013695923E+08, 1.303594770453351E+08,
2461386.500000000, A.D. 2026-Dec-12 00:00:00.0000, -1.367327558200870E+08, -3.165291032119586E+08, 1.304296000181594E+08,
2461393.500000000, A.D. 2026-Dec-19 00:00:00.0000, -1.261734142047511E+08, -3.148664647273600E+08, 1.303733061248861E+08,
2461400.500000000, A.D. 2026-Dec-26 00:00:00.0000, -1.154864577411813E+08, -3.128852864210082E+08, 1.301850971037925E+08,
2461407.500000000, A.D. 2027-Jan-02 00:00:00.0000, -1.046773648100227E+08, -3.105731061200441E+08, 1.298591442723153E+08,
2461414.500000000, A.D. 2027-Jan-09 00:00:00.0000, -9.375231491197409E+07, -3.079167546892658E+08, 1.293892635192649E+08,
2461421.500000000, A.D. 2027-Jan-16 00:00:00.0000, -8.271828877664486E+07, -3.049023098591809E+08, 1.287688885742790E+08,
2461428.500000000, A.D. 2027-Jan-23 00:00:00.0000, -7.158318382050005E+07, -3.015150485857658E+08, 1.279910425732232E+08,
2461435.500000000, A.D. 2027-Jan-30 00:00:00.0000, -6.035594736249843E+07, -2.977393985846294E+08, 1.270483079946638E+08,
2461442.500000000, A.D. 2027-Feb-06 00:00:00.0000, -4.904673022263525E+07, -2.935588895887610E+08, 1.259327951527566E+08,
2461449.500000000, A.D. 2027-Feb-13 00:00:00.0000, -3.766706474001584E+07, -2.889561043994524E+08, 1.246361097269750E+08,
2461456.500000000, A.D. 2027-Feb-20 00:00:00.0000, -2.623007375500567E+07, -2.839126323513631E+08, 1.231493200177574E+08,
2461463.500000000, A.D. 2027-Feb-27 00:00:00.0000, -1.475071402413245E+07, -2.784090309665540E+08, 1.214629243518703E+08,
2461470.500000000, A.D. 2027-Mar-06 00:00:00.0000, -3.246056676798918E+06, -2.724247974209217E+08, 1.195668197189629E+08,
2461477.500000000, A.D. 2027-Mar-13 00:00:00.0000, 8.264387233440525E+06, -2.659383526335820E+08, 1.174502736825658E+08,
2461484.500000000, A.D. 2027-Mar-20 00:00:00.0000, 1.975828765380127E+07, -2.589270454222741E+08, 1.151019020452629E+08,
2461491.500000000, A.D. 2027-Mar-27 00:00:00.0000, 3.121005503861384E+07, -2.513671862018803E+08, 1.125096556160442E+08,
2461498.500000000, A.D. 2027-Apr-03 00:00:00.0000, 4.259032992537656E+07, -2.432341222606891E+08, 1.096608207678178E+08,
2461505.500000000, A.D. 2027-Apr-10 00:00:00.0000, 5.386539370535786E+07, -2.345023705806977E+08, 1.065420402284586E+08,
2461512.500000000, A.D. 2027-Apr-17 00:00:00.0000, 6.499649219076861E+07, -2.251458293894100E+08, 1.031393628578241E+08,
2461519.500000000, A.D. 2027-Apr-24 00:00:00.0000, 7.593906541611663E+07, -2.151380962912242E+08, 9.943833418368079E+07,
2461526.500000000, A.D. 2027-May-01 00:00:00.0000, 8.664188117420827E+07, -2.044529289869243E+08, 9.542414334392439E+07,
2461533.500000000, A.D. 2027-May-08 00:00:00.0000, 9.704607690811077E+07, -1.930648938362651E+08, 9.108184698412919E+07,
2461540.500000000, A.D. 2027-May-15 00:00:00.0000, 1.070841248900578E+08, -1.809502587751506E+08, 8.639669665056287E+07,
2461547.500000000, A.D. 2027-May-22 00:00:00.0000, 1.166787550143849E+08, -1.680882027659717E+08, 8.135460249851632E+07,
2461554.500000000, A.D. 2027-May-29 00:00:00.0000, 1.257419042430211E+08, -1.544624236799548E+08, 7.594277244217449E+07,
2461561.500000000, A.D. 2027-Jun-05 00:00:00.0000, 1.341738027423854E+08, -1.400632276824019E+08, 7.015057179257873E+07,
2461568.500000000, A.D. 2027-Jun-12 00:00:00.0000, 1.418623639269037E+08, -1.248901799404882E+08, 6.397064969723928E+07,
2461575.500000000, A.D. 2027-Jun-19 00:00:00.0000, 1.486831246101241E+08, -1.089553696548630E+08, 5.740037097496732E+07,
2461582.500000000, A.D. 2027-Jun-26 00:00:00.0000, 1.545000715017798E+08, -9.228727652130793E+07, 5.044356897522280E+07,
2461589.500000000, A.D. 2027-Jul-03 00:00:00.0000, 1.591677753392892E+08, -7.493510561241682E+07, 4.311258787757424E+07,
2461596.500000000, A.D. 2027-Jul-10 00:00:00.0000, 1.625353005611989E+08, -5.697326860947169E+07, 3.543050271995760E+07,
2461603.500000000, A.D. 2027-Jul-17 00:00:00.0000, 1.644523100685223E+08, -3.850543227162404E+07, 2.743328932087741E+07,
2461610.500000000, A.D. 2027-Jul-24 00:00:00.0000, 1.647775681139487E+08, -1.966726721121794E+07, 1.917157583084897E+07,
2461617.500000000, A.D. 2027-Jul-31 00:00:00.0000, 1.633895974512593E+08, -6.268055479034586E+05, 1.071148046347769E+07,
2461624.500000000, A.D. 2027-Aug-07 00:00:00.0000, 1.601985736745158E+08, 1.841869188841429E+07, 2.133994151366749E+06,
2461631.500000000, A.D. 2027-Aug-14 00:00:00.0000, 1.551577801404112E+08, 3.725008035633700E+07, -6.467515898385668E+06,
2461638.500000000, A.D. 2027-Aug-21 00:00:00.0000, 1.482724073057789E+08, 5.563777879080299E+07, -1.499177720063925E+07,
2461645.500000000, A.D. 2027-Aug-28 00:00:00.0000, 1.396035214474363E+08, 7.335609374207866E+07, -2.333565718916418E+07,
2461652.500000000, A.D. 2027-Sep-04 00:00:00.0000, 1.292658490641035E+08, 9.019818764043608E+07, -3.140088621782617E+07,
2461659.500000000, A.D. 2027-Sep-11 00:00:00.0000, 1.174194634965773E+08, 1.059890528119063E+08, -3.910029284766120E+07,
2461666.500000000, A.D. 2027-Sep-18 00:00:00.0000, 1.042569666820112E+08, 1.205943104934616E+08, -4.636249121685469E+07,
2461673.500000000, A.D. 2027-Sep-25 00:00:00.0000, 8.998870096024896E+07, 1.339237962881653E+08, -5.313440202958250E+07,
2461680.500000000, A.D. 2027-Oct-02 00:00:00.0000, 7.482858408986250E+07, 1.459302075584299E+08, -5.938156265418404E+07,
2461687.500000000, A.D. 2027-Oct-09 00:00:00.0000, 5.898247440484493E+07, 1.566040577639285E+08, -6.508665192570020E+07,
2461694.500000000, A.D. 2027-Oct-16 00:00:00.0000, 4.263997106500748E+07, 1.659665637443155E+08, -7.024688679139677E+07,
2461701.500000000, A.D. 2027-Oct-23 00:00:00.0000, 2.596965722433864E+07, 1.740619537633567E+08, -7.487094449015681E+07,
2461708.500000000, A.D. 2027-Oct-30 00:00:00.0000, 9.117224676673338E+06, 1.809502629895410E+08, -7.897591485773359E+07,
2461715.500000000, A.D. 2027-Nov-06 00:00:00.0000, -7.794308139425448E+06, 1.867012103987600E+08, -8.258459350726843E+07,
2461722.500000000, A.D. 2027-Nov-13 00:00:00.0000, -2.466305375313546E+07, 1.913893635584029E+08, -8.572325653161937E+07,
2461729.500000000, A.D. 2027-Nov-20 00:00:00.0000, -4.140600857980988E+07, 1.950905477355140E+08, -8.841993871239199E+07,
2461736.500000000, A.D. 2027-Nov-27 00:00:00.0000, -5.795654427052094E+07, 1.978793318333011E+08, -9.070316864141382E+07,
2461743.500000000, A.D. 2027-Dec-04 00:00:00.0000, -7.426192390448037E+07, 1.998273774822154E+08, -9.260108432222711E+07,
2461750.500000000, A.D. 2027-Dec-11 00:00:00.0000, -9.028100458338402E+07, 2.010024413112835E+08, -9.414084765586409E+07,
2461757.500000000, A.D. 2027-Dec-18 00:00:00.0000, -1.059822018291294E+08, 2.014678500306720E+08, -9.534828354147951E+07,
2461764.500000000, A.D. 2027-Dec-25 00:00:00.0000, -1.213417373493605E+08, 2.012823043455744E+08, -9.624768169175991E+07,
2461771.500000000, A.D. 2028-Jan-01 00:00:00.0000, -1.363421607462102E+08, 2.004999022674079E+08, -9.686171244619310E+07,
$$EOE